[
    {
        "Altitude(m)": 624792.7562727814,
        "Argument of Periapsis(deg)": 0.0,
        "Eccentricity": 0.0,
        "Inclination(deg)": 60.0,
        "Latitude(deg)": -59.1470396736693,
        "Longitude(deg)": 34.02655426411925,
        "Mean Anomaly(deg)": -98.18179999999994,
        "RAAN(deg)": 240.0,
        "Satellite Name": "Test1 1072",
        "Satellite Number": 1072,
        "Semi-Major Axis(m)": 6980739.136638005,
        "Time(s)": 0
    },
    {
        "Altitude(m)": 624842.1477632885,
        "Argument of Periapsis(deg)": 0.00010418945913296404,
        "Eccentricity": 0.0,
        "Inclination(deg)": 60.0,
        "Latitude(deg)": -59.28912148425871,
        "Longitude(deg)": 35.15605757425336,
        "Mean Anomaly(deg)": -97.56169385453809,
        "RAAN(deg)": 239.99957995086024,
        "Satellite Name": "Test1 1072",
        "Satellite Number": 1072,
        "Semi-Major Axis(m)": 6980739.136638005,
        "Time(s)": 10
    },
    {
        "Altitude(m)": 624887.7149972375,
        "Argument of Periapsis(deg)": 0.0002083789182659281,
        "Eccentricity": 0.0,
        "Inclination(deg)": 60.0,
        "Latitude(deg)": -59.42059244867636,
        "Longitude(deg)": 36.294981292282564,
        "Mean Anomaly(deg)": -96.94158770907633,
        "RAAN(deg)": 239.99915990172047,
        "Satellite Name": "Test1 1072",
        "Satellite Number": 1072,
        "Semi-Major Axis(m)": 6980739.136638005,
        "Time(s)": 20
    },
    {
        "Altitude(m)": 624929.4400115412,
        "Argument of Periapsis(deg)": 0.00031256837739889213,
        "Eccentricity": 0.0,
        "Inclination(deg)": 60.0,
        "Latitude(deg)": -59.541315267721544,
        "Longitude(deg)": 37.44270311079932,
        "Mean Anomaly(deg)": -96.32148156361443,
        "RAAN(deg)": 239.99873985258077,
        "Satellite Name": "Test1 1072",
        "Satellite Number": 1072,
        "Semi-Major Axis(m)": 6980739.136638005,
        "Time(s)": 30
    },
    {
        "Altitude(m)": 624967.3063542803,
        "Argument of Periapsis(deg)": 0.0004167578365318562,
        "Eccentricity": 0.0,
        "Inclination(deg)": 60.0,
        "Latitude(deg)": -59.65116177565578,
        "Longitude(deg)": 38.59856573819917,
        "Mean Anomaly(deg)": -95.70137541815268,
        "RAAN(deg)": 239.99831980344103,
        "Satellite Name": "Test1 1072",
        "Satellite Number": 1072,
        "Semi-Major Axis(m)": 6980739.136638005,
        "Time(s)": 40
    },
    {
        "Altitude(m)": 625001.299091636,
        "Argument of Periapsis(deg)": 0.0005209472956648203,
        "Eccentricity": 0.0,
        "Inclination(deg)": 60.0,
        "Latitude(deg)": -59.75001357928407,
        "Longitude(deg)": 39.76187773543562,
        "Mean Anomaly(deg)": -95.08126927269083,
        "RAAN(deg)": 239.99789975430127,
        "Satellite Name": "Test1 1072",
        "Satellite Number": 1072,
        "Semi-Major Axis(m)": 6980739.136638005,
        "Time(s)": 50
    },
    {
        "Altitude(m)": 625031.4048141828,
        "Argument of Periapsis(deg)": 0.0006251367547977843,
        "Eccentricity": 0.0,
        "Inclination(deg)": 60.0,
        "Latitude(deg)": -59.83776266395864,
        "Longitude(deg)": 40.93191619033526,
        "Mean Anomaly(deg)": -94.46116312722907,
        "RAAN(deg)": 239.9974797051615,
        "Satellite Name": "Test1 1072",
        "Satellite Number": 1072,
        "Semi-Major Axis(m)": 6980739.136638005,
        "Time(s)": 60
    },
    {
        "Altitude(m)": 625057.6116425463,
        "Argument of Periapsis(deg)": 0.0007293262139307483,
        "Eccentricity": 0.0,
        "Inclination(deg)": 60.0,
        "Latitude(deg)": -59.914311959673135,
        "Longitude(deg)": 42.10792970637122,
        "Mean Anomaly(deg)": -93.84105698176717,
        "RAAN(deg)": 239.9970596560218,
        "Satellite Name": "Test1 1072",
        "Satellite Number": 1072,
        "Semi-Major Axis(m)": 6980739.136638005,
        "Time(s)": 70
    },
    {
        "Altitude(m)": 625079.909232386,
        "Argument of Periapsis(deg)": 0.0008335156730637124,
        "Eccentricity": 0.0,
        "Inclination(deg)": 60.0,
        "Latitude(deg)": -59.979575860618745,
        "Longitude(deg)": 43.28914017711379,
        "Mean Anomaly(deg)": -93.22095083630542,
        "RAAN(deg)": 239.99663960688207,
        "Satellite Name": "Test1 1072",
        "Satellite Number": 1072,
        "Semi-Major Axis(m)": 6980739.136638005,
        "Time(s)": 80
    },
    {
        "Altitude(m)": 625098.2887787757,
        "Argument of Periapsis(deg)": 0.0009377051321966765,
        "Eccentricity": 0.0,
        "Inclination(deg)": 60.0,
        "Latitude(deg)": -60.033480691921234,
        "Longitude(deg)": 44.47474635070755,
        "Mean Anomaly(deg)": -92.60084469084357,
        "RAAN(deg)": 239.9962195577423,
        "Satellite Name": "Test1 1072",
        "Satellite Number": 1072,
        "Semi-Major Axis(m)": 6980739.136638005,
        "Time(s)": 90
    },
    {
        "Altitude(m)": 625112.74301989,
        "Argument of Periapsis(deg)": 0.0010418945913296407,
        "Eccentricity": 0.0,
        "Inclination(deg)": 60.0,
        "Latitude(deg)": -60.07596511776927,
        "Longitude(deg)": 45.66392764479802,
        "Mean Anomaly(deg)": -91.98073854538171,
        "RAAN(deg)": 239.99579950860254,
        "Satellite Name": "Test1 1072",
        "Satellite Number": 1072,
        "Semi-Major Axis(m)": 6980739.136638005,
        "Time(s)": 100
    },
    {
        "Altitude(m)": 625123.2662400762,
        "Argument of Periapsis(deg)": 0.0011460840504626045,
        "Eccentricity": 0.0,
        "Inclination(deg)": 60.0,
        "Latitude(deg)": -60.1069804857537,
        "Longitude(deg)": 46.85584666740738,
        "Mean Anomaly(deg)": -91.36063239991991,
        "RAAN(deg)": 239.99537945946284,
        "Satellite Name": "Test1 1072",
        "Satellite Number": 1072,
        "Semi-Major Axis(m)": 6980739.136638005,
        "Time(s)": 110
    },
    {
        "Altitude(m)": 625129.8542722485,
        "Argument of Periapsis(deg)": 0.0012502735095955685,
        "Eccentricity": 0.0,
        "Inclination(deg)": 60.0,
        "Latitude(deg)": -60.126491102958376,
        "Longitude(deg)": 48.049653433429256,
        "Mean Anomaly(deg)": -90.74052625445806,
        "RAAN(deg)": 239.9949594103231,
        "Satellite Name": "Test1 1072",
        "Satellite Number": 1072,
        "Semi-Major Axis(m)": 6980739.136638005,
        "Time(s)": 120
    },
    {
        "Altitude(m)": 625132.5044996667,
        "Argument of Periapsis(deg)": 0.0013544629687285324,
        "Eccentricity": 0.0,
        "Inclination(deg)": 60.0,
        "Latitude(deg)": -60.13447444017648,
        "Longitude(deg)": 49.244489724026664,
        "Mean Anomaly(deg)": -90.12042010899621,
        "RAAN(deg)": 239.99453936118334,
        "Satellite Name": "Test1 1072",
        "Satellite Number": 1072,
        "Semi-Major Axis(m)": 6980739.136638005,
        "Time(s)": 130
    },
    {
        "Altitude(m)": 625131.2158570167,
        "Argument of Periapsis(deg)": 0.0014586524278614966,
        "Eccentricity": 0.0,
        "Inclination(deg)": 60.0,
        "Latitude(deg)": -60.13092126154048,
        "Longitude(deg)": 50.43949203321397,
        "Mean Anomaly(deg)": -89.50031396353435,
        "RAAN(deg)": 239.99411931204355,
        "Satellite Name": "Test1 1072",
        "Satellite Number": 1072,
        "Semi-Major Axis(m)": 6980739.136638005,
        "Time(s)": 140
    },
    {
        "Altitude(m)": 625125.9888308684,
        "Argument of Periapsis(deg)": 0.0015628418869944607,
        "Eccentricity": 0.0,
        "Inclination(deg)": 60.0,
        "Latitude(deg)": -60.11583567782516,
        "Longitude(deg)": 51.633796082384464,
        "Mean Anomaly(deg)": -88.88020781807256,
        "RAAN(deg)": 239.99369926290387,
        "Satellite Name": "Test1 1072",
        "Satellite Number": 1072,
        "Semi-Major Axis(m)": 6980739.136638005,
        "Time(s)": 150
    },
    {
        "Altitude(m)": 625116.8254594825,
        "Argument of Periapsis(deg)": 0.0016670313461274247,
        "Eccentricity": 0.0,
        "Inclination(deg)": 60.0,
        "Latitude(deg)": -60.089235122708516,
        "Longitude(deg)": 52.82654134375488,
        "Mean Anomaly(deg)": -88.2601016726107,
        "RAAN(deg)": 239.99327921376414,
        "Satellite Name": "Test1 1072",
        "Satellite Number": 1072,
        "Semi-Major Axis(m)": 6980739.136638005,
        "Time(s)": 160
    },
    {
        "Altitude(m)": 625103.7293319416,
        "Argument of Periapsis(deg)": 0.0017712208052603888,
        "Eccentricity": 0.0,
        "Inclination(deg)": 60.0,
        "Latitude(deg)": -60.05115025231211,
        "Longitude(deg)": 54.01687401350821,
        "Mean Anomaly(deg)": -87.63999552714884,
        "RAAN(deg)": 239.99285916462435,
        "Satellite Name": "Test1 1072",
        "Satellite Number": 1072,
        "Semi-Major Axis(m)": 6980739.136638005,
        "Time(s)": 170
    },
    {
        "Altitude(m)": 625086.7055866575,
        "Argument of Periapsis(deg)": 0.001875410264393353,
        "Eccentricity": 0.0,
        "Inclination(deg)": 60.0,
        "Latitude(deg)": -60.00162476936565,
        "Longitude(deg)": 55.203951414826996,
        "Mean Anomaly(deg)": -87.019889381687,
        "RAAN(deg)": 239.9924391154846,
        "Satellite Name": "Test1 1072",
        "Satellite Number": 1072,
        "Semi-Major Axis(m)": 6980739.136638005,
        "Time(s)": 180
    },
    {
        "Altitude(m)": 625065.7609092058,
        "Argument of Periapsis(deg)": 0.0019795997235263173,
        "Eccentricity": 0.0,
        "Inclination(deg)": 60.0,
        "Latitude(deg)": -59.940715174342465,
        "Longitude(deg)": 56.38694627417309,
        "Mean Anomaly(deg)": -86.3997832362252,
        "RAAN(deg)": 239.9920190663449,
        "Satellite Name": "Test1 1072",
        "Satellite Number": 1072,
        "Semi-Major Axis(m)": 6980739.136638005,
        "Time(s)": 190
    }
]